SKYSAT-C4               
1 41771U 16058B   26168.00904735  .00014202  00000+0  26781-3 0  9996
2 41771  96.9166 189.7887 0001367 133.2052 226.9314 15.48581946545440
SKYSAT-C5               
1 41772U 16058C   26168.10392836  .00005959  00000+0  18073-3 0  9995
2 41772  97.0466 208.7481 0001082 316.1442  43.9716 15.34468979543735
SKYSAT-C2               
1 41773U 16058D   26168.51893196  .00009361  00000+0  22086-3 0  9996
2 41773  97.0162 190.6014 0004647  70.1413 290.0335 15.42076805545102
SKYSAT-C3               
1 41774U 16058E   26168.07891536  .00018467  00000+0  30236-3 0  9997
2 41774  96.8998 198.9295 0001501  94.9033 265.2393 15.52534621546090
ALSAT-1B                
1 41785U 16059C   26168.51203483  .00000021  00000+0  10828-4 0  9990
2 41785  97.7743 177.2615 0008092 218.9869 141.0757 14.72274102520625
PATHFINDER 1            
1 41787U 16059E   26168.34106067  .00000448  00000+0  86497-4 0  9991
2 41787  97.8166 167.6104 0027810 203.0568 156.9391 14.67663315519734
SCATSAT 1               
1 41790U 16059H   26168.14563522  .00000880  00000+0  12249-3 0  9999
2 41790  98.1191 231.9113 0053384 247.6282 111.9267 14.79525390101583
GOKTURK 1A              
1 41875U 16073A   26168.51935457  .00000149  00000+0  38328-4 0  9995
2 41875  98.1256  63.1892 0001450  76.6893 283.4470 14.62774124508870
RESOURCESAT-2A          
1 41877U 16074A   26168.49309068  .00000138  00000+0  82999-4 0  9999
2 41877  98.7530 241.9950 0003370  83.1509 277.0051 14.21616407494348
CARTOSAT-2D             
1 41948U 17008A   26168.48775256  .00003743  00000+0  18100-3 0  9998
2 41948  97.4109 227.7888 0003835 233.2736 126.8147 15.19210010517625
SENTINEL-2B             
1 42063U 17013A   26168.48721209  .00000075  00000+0  45339-4 0  9992
2 42063  98.5696 243.2575 0001185  87.8810 272.2508 14.30817024484681
CARTOSAT-2E             
1 42767U 17036C   26168.50559789  .00005787  00000+0  27769-3 0  9994
2 42767  97.4273 228.3034 0002476 317.8025  42.3019 15.19260526498194
FORMOSAT-5              
1 42920U 17049A   26168.46668286  .00000128  00000+0  43478-4 0  9997
2 42920  98.2255 243.7702 0012676  83.6049 276.6589 14.50898968466712
SENTINEL-5P             
1 42969U 17064A   26168.41333892  .00000027  00000+0  33695-4 0  9992
2 42969  98.7925 110.5430 0000966  85.7323 274.3963 14.19518977449592
SKYSAT-C11              
1 42987U 17068A   26168.37844913  .00023474  00000+0  31556-3 0  9996
2 42987  97.4358 317.2172 0000640  86.7945 273.3384 15.57900957483272
SKYSAT-C10              
1 42988U 17068B   26168.35755764  .00006905  00000+0  20813-3 0  9994
2 42988  97.4512 305.2058 0001109  96.7257 263.4112 15.34640271482388
SKYSAT-C9               
1 42989U 17068C   26168.30387213  .00010506  00000+0  25174-3 0  9997
2 42989  97.4432 306.0875 0009403 132.5831 227.6210 15.41563589482776
SKYSAT-C8               
1 42990U 17068D   26168.32865419  .00008487  00000+0  23695-3 0  9991
2 42990  97.4530 304.9769 0001477  95.7626 264.3786 15.36977849482331
SKYSAT-C7               
1 42991U 17068E   26168.32227729  .00008534  00000+0  23843-3 0  9996
2 42991  97.4539 305.9599 0007200 106.2603 253.9433 15.36928292482393
SKYSAT-C6               
1 42992U 17068F   26168.34243169  .00007608  00000+0  23211-3 0  9995
2 42992  97.4573 305.9494 0004444 137.0324 223.1266 15.34212841482347
CARTOSAT-2F             
1 43111U 18004A   26168.53778346  .00004050  00000+0  19559-3 0  9999
2 43111  97.4787 228.1694 0000668 198.0274 162.0936 15.19218911467380
GAOFEN-1 02             
1 43259U 18031A   26168.50180615  .00000591  00000+0  92406-4 0  9994
2 43259  98.0529 231.0283 0003828  33.4477 326.6974 14.76457406442748
GAOFEN-1 03             
1 43260U 18031B   26168.54772317  .00000572  00000+0  89626-4 0  9995
2 43260  98.0517 230.9323 0003739  78.4696 281.6933 14.76469589442743
GAOFEN-1 04             
1 43262U 18031D   26167.16799045  .00000478  00000+0  76072-4 0  9997
2 43262  98.0533 229.7469 0002239  82.9600 277.1864 14.76478078442532
SENTINEL-3B             
1 43437U 18039A   26168.11957811  .00000086  00000+0  53558-4 0  9991
2 43437  98.6249 235.6528 0000727  88.7815 271.3448 14.26734700424110
GAOFEN-5 01             
1 43461U 18043A   26168.47275890  .00000264  00000+0  64332-4 0  9992
2 43461  98.4569 140.0649 0003040  83.1178 277.0367 14.60605711431731
GAOFEN-6                
1 43484U 18048A   26168.54549759  .00000769  00000+0  11722-3 0  9992
2 43484  97.9162 231.2909 0012124 165.5721 194.5837 14.76605677433446
GAOFEN-11 01            
1 43585U 18063A   26168.55938201  .00018528  00000+0  27444-3 0  9996
2 43585  97.1291 235.4380 0003117 356.9357   3.1879 15.55306910440406
ICESAT-2                
1 43613U 18070A   26168.48244799  .00007923  00000+0  28749-3 0  9996
2 43613  92.0085 291.0586 0006035 106.1256 254.0658 15.28286885432506
HYSIS                   
1 43719U 18096A   26167.39938139  .00000529  00000+0  79264-4 0  9992
2 43719  97.9845 234.1538 0001924 106.8178 253.3244 14.78693317407307
KAZSTSAT                
1 43783U 18099AB  26168.03078764  .00001390  00000+0  11661-3 0  9990
2 43783  97.4268 199.9661 0008501  70.2179 289.9961 14.99865808411282
